CTC2_L_00445001-01
1 39468U 25568DG  26070.40848380  .00000000  00000+0  00000-0 0  9995
2 39468 100.0000   0.0000 0000000   0.0000   0.0000 12.41559304    18
CTC2_L_00445001-02
1 39469U 26297BS  26070.40848380  .00000000  00000+0  00000-0 0  9996
2 39469 100.0000   0.0000 0000000   0.0000  90.0000 12.41559304    18
CTC2_L_00445001-03
1 39470U 24714SW  26070.40848380  .00000000  00000+0  00000-0 0  9990
2 39470 100.0000   0.0000 0000000   0.0000 180.0000 12.41559304    10
CTC2_L_00445001-04
1 39471U 24135DB  26070.40848380  .00000000  00000+0  00000-0 0  9998
2 39471 100.0000   0.0000 0000000   0.0000 270.0000 12.41559304    11
CTC2_L_00445002-01
1 39472U 24813WR  26070.40848380  .00000000  00000+0  00000-0 0  9992
2 39472 100.0000  12.0000 0000000   0.0000  12.0000 12.41559304    19
CTC2_L_00445002-02
1 39473U 23214XL  26070.40848380  .00000000  00000+0  00000-0 0  9997
2 39473 100.0000  12.0000 0000000   0.0000 102.0000 12.41559304    10
CTC2_L_00445002-03
1 39474U 22803XZ  26070.40848380  .00000000  00000+0  00000-0 0  9991
2 39474 100.0000  12.0000 0000000   0.0000 192.0000 12.41559304    10
CTC2_L_00445002-04
1 39475U 25045WY  26070.40848380  .00000000  00000+0  00000-0 0  9993
2 39475 100.0000  12.0000 0000000   0.0000 282.0000 12.41559304    11
CTC2_L_00445003-01
1 39476U 22794HU  26070.40848380  .00000000  00000+0  00000-0 0  9992
2 39476 100.0000  24.0000 0000000   0.0000  24.0000 12.41559304    19
CTC2_L_00445003-02
1 39477U 25363IM  26070.40848380  .00000000  00000+0  00000-0 0  9998
2 39477 100.0000  24.0000 0000000   0.0000 114.0000 12.41559304    10
CTC2_L_00445003-03
1 39478U 23574P   26070.40848380  .00000000  00000+0  00000-0 0  9991
2 39478 100.0000  24.0000 0000000   0.0000 204.0000 12.41559304    11
CTC2_L_00445003-04
1 39479U 23978OA  26070.40848380  .00000000  00000+0  00000-0 0  9990
2 39479 100.0000  24.0000 0000000   0.0000 294.0000 12.41559304    11
CTC2_L_00445004-01
1 39480U 24607BR  26070.40848380  .00000000  00000+0  00000-0 0  9992
2 39480 100.0000  36.0000 0000000   0.0000  36.0000 12.41559304    10
CTC2_L_00445004-02
1 39481U 26935C   26070.40848380  .00000000  00000+0  00000-0 0  9999
2 39481 100.0000  36.0000 0000000   0.0000 126.0000 12.41559304    11
CTC2_L_00445004-03
1 39482U 22436LZ  26070.40848380  .00000000  00000+0  00000-0 0  9992
2 39482 100.0000  36.0000 0000000   0.0000 216.0000 12.41559304    12
CTC2_L_00445004-04
1 39483U 22546FU  26070.40848380  .00000000  00000+0  00000-0 0  9995
2 39483 100.0000  36.0000 0000000   0.0000 306.0000 12.41559304    13
CTC2_L_00445005-01
1 39484U 25661QL  26070.40848380  .00000000  00000+0  00000-0 0  9997
2 39484 100.0000  48.0000 0000000   0.0000  48.0000 12.41559304    10
CTC2_L_00445005-02
1 39485U 22011BN  26070.40848380  .00000000  00000+0  00000-0 0  9994
2 39485 100.0000  48.0000 0000000   0.0000 138.0000 12.41559304    11
CTC2_L_00445005-03
1 39486U 25948XS  26070.40848380  .00000000  00000+0  00000-0 0  9997
2 39486 100.0000  48.0000 0000000   0.0000 228.0000 12.41559304    12
CTC2_L_00445005-04
1 39487U 23624ZT  26070.40848380  .00000000  00000+0  00000-0 0  9997
2 39487 100.0000  48.0000 0000000   0.0000 318.0000 12.41559304    13
CTC2_L_00445006-01
1 39488U 26479XR  26070.40848380  .00000000  00000+0  00000-0 0  9999
2 39488 100.0000  60.0000 0000000   0.0000  60.0000 12.41559304    12
CTC2_L_00445006-02
1 39489U 25758IU  26070.40848380  .00000000  00000+0  00000-0 0  9999
2 39489 100.0000  60.0000 0000000   0.0000 150.0000 12.41559304    13
CTC2_L_00445006-03
1 39490U 26257PM  26070.40848380  .00000000  00000+0  00000-0 0  9996
2 39490 100.0000  60.0000 0000000   0.0000 240.0000 12.41559304    15
CTC2_L_00445006-04
1 39491U 23628Y   26070.40848380  .00000000  00000+0  00000-0 0  9996
2 39491 100.0000  60.0000 0000000   0.0000 330.0000 12.41559304    16
CTC2_L_00445007-01
1 39492U 26334UR  26070.40848380  .00000000  00000+0  00000-0 0  9994
2 39492 100.0000  72.0000 0000000   0.0000  72.0000 12.41559304    13
CTC2_L_00445007-02
1 39493U 22202WV  26070.40848380  .00000000  00000+0  00000-0 0  9995
2 39493 100.0000  72.0000 0000000   0.0000 162.0000 12.41559304    14
CTC2_L_00445007-03
1 39494U 22065GM  26070.40848380  .00000000  00000+0  00000-0 0  9993
2 39494 100.0000  72.0000 0000000   0.0000 252.0000 12.41559304    15
CTC2_L_00445007-04
1 39495U 25488RR  26070.40848380  .00000000  00000+0  00000-0 0  9996
2 39495 100.0000  72.0000 0000000   0.0000 342.0000 12.41559304    16
CTC2_L_00445008-01
1 39496U 23849GE  26070.40848380  .00000000  00000+0  00000-0 0  9996
2 39496 100.0000  84.0000 0000000   0.0000  84.0000 12.41559304    13
CTC2_L_00445008-02
1 39497U 25838OY  26070.40848380  .00000000  00000+0  00000-0 0  9997
2 39497 100.0000  84.0000 0000000   0.0000 174.0000 12.41559304    14
CTC2_L_00445008-03
1 39498U 26009DR  26070.40848380  .00000000  00000+0  00000-0 0  9999
2 39498 100.0000  84.0000 0000000   0.0000 264.0000 12.41559304    15
CTC2_L_00445008-04
1 39499U 23331YL  26070.40848380  .00000000  00000+0  00000-0 0  9995
2 39499 100.0000  84.0000 0000000   0.0000 354.0000 12.41559304    16
CTC2_L_00445009-01
1 39500U 22123XE  26070.40848380  .00000000  00000+0  00000-0 0  9996
2 39500 100.0000  96.0000 0000000   0.0000  96.0000 12.41559304    15
CTC2_L_00445009-02
1 39501U 24251A   26070.40848380  .00000000  00000+0  00000-0 0  9991
2 39501 100.0000  96.0000 0000000   0.0000 186.0000 12.41559304    16
CTC2_L_00445009-03
1 39502U 23131YO  26070.40848380  .00000000  00000+0  00000-0 0  9998
2 39502 100.0000  96.0000 0000000   0.0000 276.0000 12.41559304    17
CTC2_L_00445009-04
1 39503U 25887IY  26070.40848380  .00000000  00000+0  00000-0 0  9999
2 39503 100.0000  96.0000 0000000   0.0000   6.0000 12.41559304    19
CTC2_L_00445010-01
1 39504U 24121WO  26070.40848380  .00000000  00000+0  00000-0 0  9990
2 39504 100.0000 108.0000 0000000   0.0000 108.0000 12.41559304    17
CTC2_L_00445010-02
1 39505U 24346JD  26070.40848380  .00000000  00000+0  00000-0 0  9990
2 39505 100.0000 108.0000 0000000   0.0000 198.0000 12.41559304    17
CTC2_L_00445010-03
1 39506U 26639Y   26070.40848380  .00000000  00000+0  00000-0 0  9998
2 39506 100.0000 108.0000 0000000   0.0000 288.0000 12.41559304    18
CTC2_L_00445010-04
1 39507U 25582ZO  26070.40848380  .00000000  00000+0  00000-0 0  9995
2 39507 100.0000 108.0000 0000000   0.0000  18.0000 12.41559304    10
CTC2_L_00445011-01
1 39508U 24676UO  26070.40848380  .00000000  00000+0  00000-0 0  9999
2 39508 100.0000 120.0000 0000000   0.0000 120.0000 12.41559304    19
CTC2_L_00445011-02
1 39509U 25977QW  26070.40848380  .00000000  00000+0  00000-0 0  9995
2 39509 100.0000 120.0000 0000000   0.0000 210.0000 12.41559304    10
CTC2_L_00445011-03
1 39510U 25357EM  26070.40848380  .00000000  00000+0  00000-0 0  9999
2 39510 100.0000 120.0000 0000000   0.0000 300.0000 12.41559304    12
CTC2_L_00445011-04
1 39511U 26627FU  26070.40848380  .00000000  00000+0  00000-0 0  9991
2 39511 100.0000 120.0000 0000000   0.0000  30.0000 12.41559304    13
CTC2_L_00445012-01
1 39512U 25620BX  26070.40848380  .00000000  00000+0  00000-0 0  9994
2 39512 100.0000 132.0000 0000000   0.0000 132.0000 12.41559304    10
CTC2_L_00445012-02
1 39513U 22879JZ  26070.40848380  .00000000  00000+0  00000-0 0  9998
2 39513 100.0000 132.0000 0000000   0.0000 222.0000 12.41559304    11
CTC2_L_00445012-03
1 39514U 22040NX  26070.40848380  .00000000  00000+0  00000-0 0  9999
2 39514 100.0000 132.0000 0000000   0.0000 312.0000 12.41559304    12
CTC2_L_00445012-04
1 39515U 24764AZ  26070.40848380  .00000000  00000+0  00000-0 0  9995
2 39515 100.0000 132.0000 0000000   0.0000  42.0000 12.41559304    13
CTC2_L_00445013-01
1 39516U 23765XZ  26070.40848380  .00000000  00000+0  00000-0 0  9996
2 39516 100.0000 144.0000 0000000   0.0000 144.0000 12.41559304    10
CTC2_L_00445013-02
1 39517U 26842QK  26070.40848380  .00000000  00000+0  00000-0 0  9996
2 39517 100.0000 144.0000 0000000   0.0000 234.0000 12.41559304    11
CTC2_L_00445013-03
1 39518U 23257Z   26070.40848380  .00000000  00000+0  00000-0 0  9994
2 39518 100.0000 144.0000 0000000   0.0000 324.0000 12.41559304    12
CTC2_L_00445013-04
1 39519U 22203SS  26070.40848380  .00000000  00000+0  00000-0 0  9995
2 39519 100.0000 144.0000 0000000   0.0000  54.0000 12.41559304    13
CTC2_L_00445014-01
1 39520U 26170AD  26070.40848380  .00000000  00000+0  00000-0 0  9994
2 39520 100.0000 156.0000 0000000   0.0000 156.0000 12.41559304    11
CTC2_L_00445014-02
1 39521U 22059EH  26070.40848380  .00000000  00000+0  00000-0 0  9997
2 39521 100.0000 156.0000 0000000   0.0000 246.0000 12.41559304    12
CTC2_L_00445014-03
1 39522U 26034RV  26070.40848380  .00000000  00000+0  00000-0 0  9995
2 39522 100.0000 156.0000 0000000   0.0000 336.0000 12.41559304    13
CTC2_L_00445014-04
1 39523U 23743SE  26070.40848380  .00000000  00000+0  00000-0 0  9990
2 39523 100.0000 156.0000 0000000   0.0000  66.0000 12.41559304    14
CTC2_L_00445015-01
1 39524U 24020ZF  26070.40848380  .00000000  00000+0  00000-0 0  9990
2 39524 100.0000 168.0000 0000000   0.0000 168.0000 12.41559304    11
CTC2_L_00445015-02
1 39525U 23462NA  26070.40848380  .00000000  00000+0  00000-0 0  9990
2 39525 100.0000 168.0000 0000000   0.0000 258.0000 12.41559304    12
CTC2_L_00445015-03
1 39526U 22492RT  26070.40848380  .00000000  00000+0  00000-0 0  9993
2 39526 100.0000 168.0000 0000000   0.0000 348.0000 12.41559304    13
CTC2_L_00445015-04
1 39527U 25219T   26070.40848380  .00000000  00000+0  00000-0 0  9994
2 39527 100.0000 168.0000 0000000   0.0000  78.0000 12.41559304    14
CTC2_L_00445016-01
1 39528U 26880ZK  26070.40848380  .00000000  00000+0  00000-0 0  9990
2 39528 100.0000 180.0000 0000000   0.0000 180.0000 12.41559304    13
CTC2_L_00445016-02
1 39529U 22715LK  26070.40848380  .00000000  00000+0  00000-0 0  9994
2 39529 100.0000 180.0000 0000000   0.0000 270.0000 12.41559304    14
